NORAD_CAT_ID,OBJECT_NAME,OBJECT_TYPE,EPOCH,MEAN_MOTION,ECCENTRICITY,INCLINATION,RA_OF_ASC_NODE,ARG_OF_PERICENTER,MEAN_ANOMALY,BSTAR,MEAN_MOTION_DOT,MEAN_MOTION_DDOT,TLE_LINE0,TLE_LINE1,TLE_LINE2,SEMIMAJOR_AXIS,PERIOD,APOGEE,PERIGEE,DECAYED
49452.0,STARLINK-3150,PAYLOAD,2023-12-16 02:46:19,15.08834537,0.00017,53.217,275.9208,75.6532,284.4649,4.9508e-06,-2.09e-06,0.0,0 STARLINK-3150,1 49452U 21104AW  23350.11549847 -.00000209  00000-0  49508-5 0  9997,2 49452  53.2170 275.9208 0001700  75.6532 284.4649 15.08834537116888,6917.897,95.438,540.938,538.586,0.0
49452.0,STARLINK-3150,PAYLOAD,2023-12-17 02:37:05,15.08843703,0.0001693,53.2182,271.462,83.0909,277.0276,0.00011619,1.562e-05,0.0,0 STARLINK-3150,1 49452U 21104AW  23351.10909190  .00001562  00000-0  11619-3 0  9990,2 49452  53.2182 271.4620 0001693  83.0909 277.0276 15.08843703117039,6917.869,95.437,540.905,538.563,0.0
49452.0,STARLINK-3150,PAYLOAD,2023-12-17 07:23:14,15.08853082,0.0001652,53.2173,270.5712,83.0654,277.0526,0.00013838,1.916e-05,0.0,0 STARLINK-3150,1 49452U 21104AW  23351.30780538  .00001916  00000-0  13838-3 0  9993,2 49452  53.2173 270.5712 0001652  83.0654 277.0526 15.08853082117065,6917.84,95.437,540.848,538.563,0.0
49452.0,STARLINK-3150,PAYLOAD,2023-12-18 00:52:29,15.08850453,0.0001879,53.2178,267.298,91.23,268.8907,0.00023526,3.459e-05,0.0,0 STARLINK-3150,1 49452U 21104AW  23352.03644908  .00003459  00000-0  23526-3 0  9993,2 49452  53.2178 267.2980 0001879  91.2300 268.8907 15.08850453117172,6917.848,95.437,541.013,538.414,0.0
49452.0,STARLINK-3150,PAYLOAD,2023-12-18 21:32:30,15.08840436,0.0001564,53.2183,263.4325,113.0838,247.0319,-6.7852e-05,-1.368e-05,0.0,0 STARLINK-3150,1 49452U 21104AW  23352.89757266 -.00001368  00000-0 -67852-4 0  9999,2 49452  53.2183 263.4325 0001564 113.0838 247.0319 15.08840436116220,6917.879,95.438,540.826,538.662,0.0
49452.0,STARLINK-3150,PAYLOAD,2023-12-19 00:43:16,15.08838717,0.0001638,53.2171,262.8386,118.6212,241.4945,-8.8302e-05,-1.693e-05,0.0,0 STARLINK-3150,1 49452U 21104AW  23353.03005304 -.00001693  00000-0 -88302-4 0  9999,2 49452  53.2171 262.8386 0001638 118.6212 241.4945 15.08838717117320,6917.884,95.438,540.882,538.616,0.0
49452.0,STARLINK-3150,PAYLOAD,2023-12-20 00:34:03,15.08852142,0.000154,53.2171,258.3792,117.0376,243.0774,-9.5255e-05,-1.804e-05,0.0,0 STARLINK-3150,1 49452U 21104AW  23354.02365075 -.00001804  00000-0 -95255-4 0  9992,2 49452  53.2171 258.3792 0001540 117.0376 243.0774 15.08852142117479,6917.843,95.437,540.774,538.643,0.0
49452.0,STARLINK-3150,PAYLOAD,2023-12-20 21:14:04,15.08839986,0.0001549,53.2172,254.5154,114.4919,245.6235,0.00017844,2.553e-05,0.0,0 STARLINK-3150,1 49452U 21104AW  23354.88477239  .00002553  00000-0  17844-3 0  9999,2 49452  53.2172 254.5154 0001549 114.4919 245.6235 15.08839986116529,6917.88,95.438,540.817,538.674,0.0
49452.0,STARLINK-3150,PAYLOAD,2023-12-21 00:24:50,15.08849724,0.0001472,53.2167,253.9189,109.3947,250.7205,0.0002804,4.179e-05,0.0,0 STARLINK-3150,1 49452U 21104AW  23355.01725031  .00004179  00000-0  28040-3 0  9997,2 49452  53.2167 253.9189 0001472 109.3947 250.7205 15.08849724116540,6917.851,95.437,540.734,538.697,0.0
49452.0,STARLINK-3150,PAYLOAD,2023-12-21 22:40:14,15.08839002,0.0001619,53.2161,249.7566,114.9423,245.1738,-3.1687e-05,-7.92e-06,0.0,0 STARLINK-3150,1 49452U 21104AW  23355.94461607 -.00000792  00000-0 -31687-4 0  9996,2 49452  53.2161 249.7566 0001619 114.9423 245.1738 15.08839002116682,6917.883,95.438,540.868,538.628,0.0
49452.0,STARLINK-3150,PAYLOAD,2023-12-22 00:15:37,15.08840606,0.0001602,53.2164,249.4597,112.797,247.3191,-2.4986e-07,-2.92e-06,0.0,0 STARLINK-3150,1 49452U 21104AW  23356.01085548 -.00000292  00000-0 -24986-6 0  9992,2 49452  53.2164 249.4597 0001602 112.7970 247.3191 15.08840606117771,6917.879,95.438,540.852,538.635,0.0
49452.0,STARLINK-3150,PAYLOAD,2023-12-22 22:31:01,15.08842212,0.0001732,53.2166,245.3016,120.4139,239.7024,-5.228e-05,-1.12e-05,0.0,0 STARLINK-3150,1 49452U 21104AW  23356.93821566 -.00001120  00000-0 -52280-4 0  9998,2 49452  53.2166 245.3016 0001732 120.4139 239.7024 15.08842212116832,6917.874,95.437,540.937,538.54,0.0
49452.0,STARLINK-3150,PAYLOAD,2023-12-23 03:17:11,15.08844027,0.000153,53.216,244.4005,105.4208,254.6954,4.3747e-05,4.08e-06,0.0,0 STARLINK-3150,1 49452U 21104AW  23357.13693486  .00000408  00000-0  43747-4 0  9993,2 49452  53.2160 244.4005 0001530 105.4208 254.6954 15.08844027117947,6917.868,95.437,540.792,538.675,0.0
49452.0,STARLINK-3150,PAYLOAD,2023-12-23 16:00:16,15.08832048,0.0001581,53.2155,242.0181,124.3021,235.8121,4.9733e-06,-2.09e-06,0.0,0 STARLINK-3150,1 49452U 21104AW  23357.66686258 -.00000209  00000-0  49733-5 0  9992,2 49452  53.2155 242.0181 0001581 124.3021 235.8121 15.08832048118026,6917.905,95.438,540.863,538.676,0.0
49452.0,STARLINK-3150,PAYLOAD,2023-12-23 22:21:48,15.08840541,0.00021,53.2159,240.8341,135.2011,224.9151,9.2866e-05,1.19e-05,0.0,0 STARLINK-3150,1 49452U 21104AW  23357.93181685  .00001190  00000-0  92866-4 0  9999,2 49452  53.2159 240.8341 0002100 135.2011 224.9151 15.08840541116984,6917.879,95.438,541.196,538.291,0.0
49452.0,STARLINK-3150,PAYLOAD,2023-12-23 23:57:12,15.08838515,0.000157,53.2163,240.5411,92.3396,267.7776,0.00010199,1.335e-05,0.0,0 STARLINK-3150,1 49452U 21104AW  23357.99806156  .00001335  00000-0  10199-3 0  9991,2 49452  53.2163 240.5411 0001570  92.3396 267.7776 15.08838515118071,6917.885,95.438,540.836,538.664,0.0
49452.0,STARLINK-3150,PAYLOAD,2023-12-24 22:12:36,15.08848382,0.0001476,53.2151,236.3776,85.4708,274.6453,0.00017213,2.453e-05,0.0,0 STARLINK-3150,1 49452U 21104AW  23358.92541766  .00002453  00000-0  17213-3 0  9994,2 49452  53.2151 236.3776 0001476  85.4708 274.6453 15.08848382117138,6917.855,95.437,540.741,538.699,0.0
49452.0,STARLINK-3150,PAYLOAD,2023-12-25 20:28:00,15.08840451,0.0001638,53.2141,232.2148,74.6324,285.4849,9.4131e-05,1.21e-05,0.0,0 STARLINK-3150,1 49452U 21104AW  23359.85278269  .00001210  00000-0  94131-4 0  9997,2 49452  53.2141 232.2148 0001638  74.6324 285.4849 15.08840451118352,6917.879,95.438,540.877,538.611,0.0
49452.0,STARLINK-3150,PAYLOAD,2023-12-25 22:03:23,15.08839489,0.000157,53.2149,231.9169,101.9831,258.1337,4.0992e-05,3.64e-06,0.0,0 STARLINK-3150,1 49452U 21104AW  23359.91902110  .00000364  00000-0  40992-4 0  9998,2 49452  53.2149 231.9169 0001570 101.9831 258.1337 15.08839489117280,6917.882,95.438,540.833,538.661,0.0
49452.0,STARLINK-3150,PAYLOAD,2023-12-26 21:54:10,15.08844871,0.0001645,53.2168,227.4537,107.1335,252.9838,-6.0199e-06,-3.84e-06,0.0,0 STARLINK-3150,1 49452U 21104AW  23360.91262041 -.00000384  00000-0 -60199-5 0  9998,2 49452  53.2168 227.4537 0001645 107.1335 252.9838 15.08844871117436,6917.866,95.437,540.868,538.593,0.0
49452.0,STARLINK-3150,PAYLOAD,2023-12-27 21:44:57,15.08841176,0.0001619,53.2168,222.9932,106.4617,253.6553,0.00012323,1.674e-05,0.0,0 STARLINK-3150,1 49452U 21104AW  23361.90621985  .00001674  00000-0  12323-3 0  9999,2 49452  53.2168 222.9932 0001619 106.4617 253.6553 15.08841176117584,6917.877,95.437,540.862,538.622,0.0
49452.0,STARLINK-3150,PAYLOAD,2023-12-28 20:00:21,15.08835431,0.0001602,53.217,218.8307,106.1628,253.9541,4.1773e-05,3.77e-06,0.0,0 STARLINK-3150,1 49452U 21104AW  23362.83358708  .00000377  00000-0  41773-4 0  9993,2 49452  53.2170 218.8307 0001602 106.1628 253.9541 15.08835431118801,6917.894,95.438,540.868,538.651,0.0
49452.0,STARLINK-3150,PAYLOAD,2023-12-29 19:51:08,15.08841034,0.0001659,53.2169,214.3719,114.1644,245.9522,5.7594e-05,6.29e-06,0.0,0 STARLINK-3150,1 49452U 21104AW  23363.82718309  .00000629  00000-0  57594-4 0  9998,2 49452  53.2169 214.3719 0001659 114.1644 245.9522 15.08841034117878,6917.877,95.437,540.89,538.595,0.0
49452.0,STARLINK-3150,PAYLOAD,2023-12-30 19:41:56,15.08836306,0.0001324,53.2153,209.9033,89.2385,270.8759,4.601e-05,4.44e-06,0.0,0 STARLINK-3150,1 49452U 21104AW  23364.82078906  .00000444  00000-0  46010-4 0  9997,2 49452  53.2153 209.9033 0001324  89.2385 270.8759 15.08836306119106,6917.892,95.438,540.673,538.841,0.0
49452.0,STARLINK-3150,PAYLOAD,2023-12-30 21:17:19,15.08835317,0.0001332,53.2154,209.6075,92.6672,267.4473,3.3826e-05,2.5e-06,0.0,0 STARLINK-3150,1 49452U 21104AW  23364.88702964  .00000250  00000-0  33826-4 0  9997,2 49452  53.2154 209.6075 0001332  92.6672 267.4473 15.08835317118033,6917.895,95.438,540.681,538.838,0.0
49452.0,STARLINK-3150,PAYLOAD,2023-12-31 21:08:06,15.08839715,0.0001423,53.2156,205.1502,90.4994,269.6161,8.9293e-05,1.133e-05,0.0,0 STARLINK-3150,1 49452U 21104AW  23365.88062712  .00001133  00000-0  89293-4 0  9998,2 49452  53.2156 205.1502 0001423  90.4994 269.6161 15.08839715118185,6917.881,95.438,540.731,538.762,0.0
49452.0,STARLINK-3150,PAYLOAD,2024-01-01 13:01:57,15.08839308,0.0001462,53.2154,202.1768,87.7241,272.3918,8.2926e-05,1.032e-05,0.0,0 STARLINK-3150,1 49452U 21104AW  24001.54302842  .00001032  00000-0  82926-4 0  9994,2 49452  53.2154 202.1768 0001462  87.7241 272.3918 15.08839308118281,6917.883,95.438,540.759,538.736,0.0
49452.0,STARLINK-3150,PAYLOAD,2024-01-01 19:23:30,15.08840948,0.0001473,53.2155,200.9874,86.9852,273.1308,9.1182e-05,1.164e-05,0.0,0 STARLINK-3150,1 49452U 21104AW  24001.80798734  .00001164  00000-0  91182-4 0  9992,2 49452  53.2155 200.9874 0001473  86.9852 273.1308 15.08840948118326,6917.877,95.437,540.761,538.723,0.0
49452.0,STARLINK-3150,PAYLOAD,2024-01-02 19:14:16,15.08845781,0.0001505,53.2155,196.527,83.4172,276.6991,7.0527e-05,8.35e-06,0.0,0 STARLINK-3150,1 49452U 21104AW  24002.80158353  .00000835  00000-0  70527-4 0  9994,2 49452  53.2155 196.5270 0001505  83.4172 276.6991 15.08845781119551,6917.863,95.437,540.769,538.687,0.0
49452.0,STARLINK-3150,PAYLOAD,2024-01-03 19:05:04,15.08840523,0.0001478,53.2155,192.0657,91.5379,268.5782,5.7721e-06,-1.96e-06,0.0,0 STARLINK-3150,1 49452U 21104AW  24003.79518623 -.00000196  00000-0  57721-5 0  9996,2 49452  53.2155 192.0657 0001478  91.5379 268.5782 15.08840523119703,6917.879,95.438,540.766,538.721,0.0
